[{"OBJECT_NAME":"STARLINK-5532","OBJECT_ID":"2023-028V","EPOCH":"2026-03-09T21:04:35.078592","MEAN_MOTION":14.98337029,"ECCENTRICITY":0.00031323,"INCLINATION":69.9992,"RA_OF_ASC_NODE":243.7677,"ARG_OF_PERICENTER":266.5125,"MEAN_ANOMALY":93.5676,"EPHEMERIS_TYPE":0,"CLASSIFICATION_TYPE":"U","NORAD_CAT_ID":55760,"ELEMENT_SET_NO":999,"REV_AT_EPOCH":16607,"BSTAR":9.7835641e-5,"MEAN_MOTION_DOT":1.075e-5,"MEAN_MOTION_DDOT":0},{"OBJECT_NAME":"CZ-4C R\/B","OBJECT_ID":"2023-136B","EPOCH":"2026-03-09T22:23:17.511648","MEAN_MOTION":15.02951771,"ECCENTRICITY":0.01088591,"INCLINATION":98.3028,"RA_OF_ASC_NODE":56.8789,"ARG_OF_PERICENTER":268.7974,"MEAN_ANOMALY":90.0776,"EPHEMERIS_TYPE":0,"CLASSIFICATION_TYPE":"U","NORAD_CAT_ID":57798,"ELEMENT_SET_NO":999,"REV_AT_EPOCH":13700,"BSTAR":0.0002043348,"MEAN_MOTION_DOT":3.042e-5,"MEAN_MOTION_DDOT":0}]
